ONEWEB-0208             
1 48243U 21031AK  24211.89249689  .00000274  00000+0  70482-3 0  9999
2 48243  87.8929  66.4218 0001627  87.7881 272.3435 13.14500830158014
ONEWEB-0200             
1 48244U 21031AL  24211.85599705 -.00000230  00000+0 -65591-3 0  9992
2 48244  87.8925  66.4257 0001560  87.0663 273.0645 13.14500872157938
ONEWEB-0217             
1 48245U 21031AM  24211.87185181 -.00000507  00000+0 -14011-2 0  9991
2 48245  87.8927  66.4071 0001490  86.8823 273.2477 13.14503020157889
ONEWEB-0211             
1 48767U 21045A   24212.22128722  .00000005  00000+0 -20402-4 0  9998
2 48767  87.9020  35.8756 0001720  85.4975 274.6351 13.15549784155222
ONEWEB-0223             
1 48768U 21045B   24211.93922818 -.00000204  00000+0 -57626-3 0  9993
2 48768  87.9022  35.9406 0001415  68.7766 291.3516 13.15547677154048
ONEWEB-0230             
1 48769U 21045C   24212.21495028  .00000046  00000+0  87984-4 0  9997
2 48769  87.9021  35.9558 0001861  84.1024 276.0318 13.15549304155455
ONEWEB-0237             
1 48770U 21045D   24211.89962526  .00000125  00000+0  29931-3 0  9999
2 48770  87.9029  35.9525 0001557  77.0267 283.1037 13.15546912154022
ONEWEB-0235             
1 48771U 21045E   24211.87427686  .00000106  00000+0  24815-3 0  9996
2 48771  87.9017  35.9640 0001494  64.3832 295.7453 13.15548977154018
ONEWEB-0242             
1 48772U 21045F   24212.02005441  .00000031  00000+0  49492-4 0  9992
2 48772  87.9017  35.9231 0001759  81.3407 278.7922 13.15549340155205
ONEWEB-0241             
1 48773U 21045G   24211.93131258 -.00000083  00000+0 -25517-3 0  9998
2 48773  87.9027  35.9917 0001360  86.4826 273.6460 13.15549901153973
ONEWEB-0243             
1 48774U 21045H   24211.88695714  .00000201  00000+0  50088-3 0  9996
2 48774  87.9029  35.9600 0001536  69.2313 290.8981 13.15549668155128
ONEWEB-0222             
1 48775U 21045J   24211.94637497  .00000085  00000+0  19260-3 0  9995
2 48775  87.9016  35.9472 0001506  84.7962 275.3340 13.15549789154042
ONEWEB-0244             
1 48776U 21045K   24211.89645577  .00000132  00000+0  31630-3 0  9996
2 48776  87.9017  35.9392 0001840  82.1823 277.9516 13.15547366155722
ONEWEB-0247             
1 48777U 21045L   24211.89329398  .00000155  00000+0  37756-3 0  9997
2 48777  87.9025  35.9840 0001614  51.5216 308.6059 13.15549057155177
ONEWEB-0245             
1 48778U 21045M   24211.88853720  .00000116  00000+0  27335-3 0  9997
2 48778  87.9017  35.9719 0001531  91.2324 268.8982 13.15548555154019
ONEWEB-0229             
1 48779U 21045N   24211.88377482  .00000152  00000+0  36880-3 0  9999
2 48779  87.9017  35.9670 0001771  83.7370 276.3962 13.15550205154049
ONEWEB-0228             
1 48780U 21045P   24212.21813218  .00000013  00000+0  15843-5 0  9995
2 48780  87.9017  35.8811 0001702  84.1527 275.9797 13.15071568155132
ONEWEB-0232             
1 48781U 21045Q   24211.89171944  .00000183  00000+0  45267-3 0  9991
2 48781  87.9011  35.9592 0001720  84.6171 275.5156 13.15548378155407
ONEWEB-0231             
1 48782U 21045R   24211.94558277  .00000110  00000+0  25884-3 0  9999
2 48782  87.9026  35.9848 0001629  80.3258 279.8056 13.15549103153989
ONEWEB-0234             
1 48783U 21045S   24211.88933318  .00000210  00000+0  52279-3 0  9995
2 48783  87.9020  35.9518 0002152 126.9631 233.1696 13.15549319155245
ONEWEB-0238             
1 48784U 21045T   24212.22367771  .00000012  00000+0 -33723-5 0  9995
2 48784  87.9019  35.9025 0001809  93.2093 266.9244 13.15549989155182
ONEWEB-0240             
1 48785U 21045U   24212.08106180 -.00000129  00000+0 -37710-3 0  9993
2 48785  87.9017  35.8984 0001385  85.8589 274.2700 13.15548764155189
ONEWEB-0246             
1 48786U 21045V   24212.07549746 -.00024030  00000+0 -63921-1 0  9990
2 48786  87.9018  35.9044 0002141  66.5112 293.6243 13.15668241155054
ONEWEB-0210             
1 48787U 21045W   24212.20227698  .00000174  00000+0  42784-3 0  9992
2 48787  87.9018  35.8838 0001828  59.6437 300.4874 13.15548841155127
ONEWEB-0214             
1 48788U 21045X   24211.90755409 -.00000017  00000+0 -79946-4 0  9994
2 48788  87.9019  35.9311 0002018  69.1535 290.9811 13.15549260153929
ONEWEB-0221             
1 48789U 21045Y   24212.21811179  .00000028  00000+0  39379-4 0  9993
2 48789  87.9022  35.8884 0001548  84.6380 275.4927 13.15546859155193
ONEWEB-0213             
1 48790U 21045Z   24212.05490948  .00000068  00000+0  14592-3 0  9997
2 48790  87.9021  35.9339 0001528  77.0453 283.0848 13.15549433155227
ONEWEB-0212             
1 48791U 21045AA  24211.87982463  .00000105  00000+0  24573-3 0  9997
2 48791  87.9021  35.9525 0001756  91.6409 268.4922 13.15548939154062
ONEWEB-0227             
1 48792U 21045AB  24211.87903230  .00000025  00000+0  31409-4 0  9991
2 48792  87.9020  35.9678 0001613  86.9926 273.1389 13.15548426154010
ONEWEB-0226             
1 48793U 21045AC  24211.87269276  .00000089  00000+0  20228-3 0  9993
2 48793  87.9018  35.9753 0001675  70.9288 289.2024 13.15549234153981
ONEWEB-0224             
1 48794U 21045AD  24212.21653237  .00000051  00000+0  10222-3 0  9999
2 48794  87.9026  35.9295 0000910 121.0239 239.0981 13.15549512155073
ONEWEB-0233             
1 48795U 21045AE  24212.22205950  .00000017  00000+0  11545-4 0  9998
2 48795  87.9023  35.9427 0001480  85.3760 274.7540 13.15551172155085
ONEWEB-0190             
1 48796U 21045AF  24212.20860596  .00000153  00000+0  37335-3 0  9995
2 48796  87.9024  35.9053 0001321  53.5260 306.5992 13.15549814155162
ONEWEB-0236             
1 48797U 21045AG  24211.92181074 -.00000124  00000+0 -36299-3 0  9999
2 48797  87.9027  35.9576 0001643  88.9542 271.1777 13.15549705153893
ONEWEB-0248             
1 48798U 21045AH  24212.01054642 -.00000045  00000+0 -15384-3 0  9995
2 48798  87.9018  35.9271 0001002  84.7053 275.4191 13.15548974155184
ONEWEB-0225             
1 48799U 21045AJ  24211.88061509  .00000107  00000+0  24965-3 0  9992
2 48799  87.9022  35.9671 0001432  77.6260 282.5030 13.15548797154051
ONEWEB-0215             
1 48800U 21045AK  24211.92655810 -.00000076  00000+0 -23592-3 0  9996
2 48800  87.9017  35.9296 0001015  67.7003 292.4235 13.15549966153935
ONEWEB-0216             
1 48801U 21045AL  24212.01213210  .00000008  00000+0 -11979-4 0  9993
2 48801  87.9018  35.9540 0001942  80.2819 279.8531 13.15548999155073
ONEWEB-0239             
1 48802U 21045AM  24212.01687896 -.00000017  00000+0 -77943-4 0  9993
2 48802  87.9028  35.9326 0000828  79.0477 281.0747 13.15549203155135
ONEWEB-0249             
1 48967U 21060A   24211.88759599  .00000076  00000+0  16609-3 0  9990
2 48967  87.9124   5.6098 0001824  94.7450 265.3889 13.16594619149177
ONEWEB-0250             
1 48968U 21060B   24211.91667824  .00374358  00000+0  90109+0 0  9994
2 48968  87.9123   5.5826 0001253  95.6098  61.5418 13.19851218150449
ONEWEB-0252             
1 48970U 21060D   24211.91926308 -.00000063  00000+0 -19722-3 0  9999
2 48970  87.9124   5.5965 0001843  89.2285 270.9057 13.16595247149222
ONEWEB-0253             
1 48971U 21060E   24211.90817773 -.00000015  00000+0 -71850-4 0  9992
2 48971  87.9123   5.6097 0001572  84.8681 275.2629 13.16595682149157
ONEWEB-0254             
1 48972U 21060F   24211.91767737 -.00000051  00000+0 -16816-3 0  9998
2 48972  87.9125   5.5864 0001555  86.7697 273.3612 13.16595344149156
ONEWEB-0255             
1 48973U 21060G   24211.87968267  .00000113  00000+0  26301-3 0  9992
2 48973  87.9124   5.6285 0001778  96.2305 263.9029 13.16593742149228
ONEWEB-0256             
1 48974U 21060H   24211.90580351  .00000016  00000+0  78850-5 0  9991
2 48974  87.9127   5.6279 0001970  91.4805 268.6551 13.16593962149193
ONEWEB-0257             
1 48975U 21060J   24211.93826130  .00000029  00000+0  42494-4 0  9991
2 48975  87.9124   5.5910 0001847  88.8659 271.2683 13.16593435149159
ONEWEB-0258             
1 48976U 21060K   24211.93983829  .00000070  00000+0  14963-3 0  9996
2 48976  87.9123   5.6190 0001776  95.6743 264.4591 13.16592265149164
ONEWEB-0259             
1 48977U 21060L   24211.93350024  .00000009  00000+0 -10648-4 0  9992
2 48977  87.9122   5.6049 0001557  97.4013 262.7295 13.16593067149190
ONEWEB-0260             
1 48978U 21060M   24211.84880807 -.00000039  00000+0 -13595-3 0  9997
2 48978  87.9124   5.6507 0002215  81.0659 279.0722 13.16593303149165
ONEWEB-0261             
1 48979U 21060N   24211.89392838  .00000003  00000+0 -25335-4 0  9991
2 48979  87.9128   5.6366 0001502  75.1949 284.9348 13.16595256149222
ONEWEB-0262             
1 48980U 21060P   24211.87492336  .00000108  00000+0  24783-3 0  9995
2 48980  87.9122   5.6033 0001312  97.1464 262.9816 13.16595684149180
ONEWEB-0263             
1 48981U 21060Q   24211.90659670 -.00000019  00000+0 -82768-4 0  9997
2 48981  87.9128   5.6147 0001361  83.5538 276.5748 13.16595077149156
ONEWEB-0264             
1 48982U 21060R   24212.17178102  .00000087  00000+0  19523-3 0  9995
2 48982  87.9126   5.5729 0001743  92.8165 267.3166 13.16596351150489
ONEWEB-0266             
1 48984U 21060T   24211.88918185  .00000135  00000+0  31893-3 0  9995
2 48984  87.9124   5.6055 0001795  96.6682 263.4654 13.16594435149146
ONEWEB-0267             
1 48985U 21060U   24211.90026327 -.00000024  00000+0 -97435-4 0  9991
2 48985  87.9124   5.6049 0001657  81.8787 278.2531 13.16594838149155
ONEWEB-0268             
1 48986U 21060V   24211.94458031  .00000101  00000+0  23084-3 0  9999
2 48986  87.9125   5.6023 0001916  89.3699 270.7652 13.16593557149420
ONEWEB-0269             
1 48987U 21060W   24211.92559236 -.00000039  00000+0 -13473-3 0  9990
2 48987  87.9127   5.6328 0001929  94.9647 265.1704 13.16595662149199
ONEWEB-0270             
1 48988U 21060X   24211.94301048  .00000120  00000+0  28055-3 0  9990
2 48988  87.9124   5.6103 0001297  85.2110 274.9169 13.16594903149239
